0 SL-12 R/B(AUX MOTOR)
1 28919U 05050E   13281.59524549  .00000060  00000-0  27522-3 0  5888
2 28919 065.1626 280.3468 5622951 054.0243 009.3539 04.23406014119987
0 SL-12 R/B(AUX MOTOR)
1 28919U 05050E   13284.19039931  .00000057  00000-0  27135-3 0  5890
2 28919 065.1602 279.4410 5623339 053.8935 005.0572 04.23406276120097
0 SL-12 R/B(AUX MOTOR)
1 28919U 05050E   13286.62360822  .00000065  00000-0  34135-3 0  5905
2 28919 065.1580 278.5920 5623687 053.7705 113.9182 04.23406301120194
0 SL-12 R/B(AUX MOTOR)
1 28919U 05050E   13289.14979597  .00000044  00000-0  19655-3 0  5918
2 28919 065.1558 277.7105 5624062 053.6428 004.4991 04.23406820120305
0 SL-12 R/B(AUX MOTOR)
1 28919U 05050E   13291.51396074  .00000059  00000-0  37283-3 0  5929
2 28919 065.1537 276.8855 5624383 053.5231 008.1236 04.23406610120402
0 SL-12 R/B(AUX MOTOR)
1 28919U 05050E   13294.58809153  .00000032  00000-0  17912-3 0  5935
2 28919 065.1513 275.8130 5624852 053.3671 013.9209 04.23407163120530
